start=new Date('2023-02-12T00:00:00.000Z').valueOf();
sats=[{"SITE":"AFWTR","GP_ID":"225187078","DECAY_DATE":null,"PERIAPSIS":"562.549","TLE_LINE2":"2 53200  97.6564 105.5940 0000676 259.5004 100.6144 15.01258002 31641","APOAPSIS":"563.487","OBJECT_ID":"2022-084M","COUNTRY_CODE":"US","ARG_OF_PERICENTER":"259.5004","RA_OF_ASC_NODE":"105.5940","MEAN_MOTION_DDOT":"0.0000000000000","TIME_SYSTEM":"UTC","LAUNCH_DATE":"2022-07-22","MEAN_MOTION_DOT":"-0.00001176","EPOCH":"2023-02-11T17:51:14.865120","MEAN_ELEMENT_THEORY":"SGP4","MEAN_MOTION":"15.01258002","OBJECT_NAME":"STARLINK-4417","PERIOD":"95.920","EPHEMERIS_TYPE":"0","RCS_SIZE":"LARGE","MEAN_ANOMALY":"100.6144","CENTER_NAME":"EARTH","ELEMENT_SET_NO":"999","TLE_LINE1":"1 53200U 22084M   23042.74392205 -.00001176  00000-0 -87022-4 0  9999","CLASSIFICATION_TYPE":"U","NORAD_CAT_ID":"53200","ECCENTRICITY":"0.00006760","SEMIMAJOR_AXIS":"6941.153","INCLINATION":"97.6564","BSTAR":"-0.00008702200000","OBJECT_TYPE":"PAYLOAD","FILE":"3786577","REF_FRAME":"TEME","REV_AT_EPOCH":"3164"},{"RA_OF_ASC_NODE":"105.6527","ARG_OF_PERICENTER":"252.5277","TLE_LINE2":"2 53201  97.6573 105.6527 0000993 252.5277 107.5839 15.01263351 30998","APOAPSIS":"563.691","OBJECT_ID":"2022-084N","COUNTRY_CODE":"US","MEAN_MOTION_DOT":"0.00003671","LAUNCH_DATE":"2022-07-22","MEAN_MOTION_DDOT":"0.0000000000000","TIME_SYSTEM":"UTC","DECAY_DATE":null,"GP_ID":"225187829","SITE":"AFWTR","PERIAPSIS":"562.312","MEAN_MOTION":"15.01263351","MEAN_ELEMENT_THEORY":"SGP4","OBJECT_NAME":"STARLINK-4405","PERIOD":"95.919","EPOCH":"2023-02-11T19:16:33.406752","TLE_LINE1":"1 53201U 22084N   23042.80316443  .00003671  00000-0  29021-3 0  9991","CLASSIFICATION_TYPE":"U","NORAD_CAT_ID":"53201","SEMIMAJOR_AXIS":"6941.137","ECCENTRICITY":"0.00009930","MEAN_ANOMALY":"107.5839","EPHEMERIS_TYPE":"0","RCS_SIZE":"LARGE","CENTER_NAME":"EARTH","ELEMENT_SET_NO":"999","REF_FRAME":"TEME","REV_AT_EPOCH":"3099","BSTAR":"0.00029021000000","INCLINATION":"97.6573","FILE":"3786577","OBJECT_TYPE":"PAYLOAD"},{"MEAN_ANOMALY":"262.9838","RCS_SIZE":"MEDIUM","EPHEMERIS_TYPE":"0","ELEMENT_SET_NO":"999","CENTER_NAME":"EARTH","TLE_LINE1":"1 53202U 22084P   23042.90574715  .00000476  00000-0  42511-4 0  9991","NORAD_CAT_ID":"53202","CLASSIFICATION_TYPE":"U","SEMIMAJOR_AXIS":"6943.643","ECCENTRICITY":"0.00025390","BSTAR":"0.00004251100000","INCLINATION":"97.6556","FILE":"3786475","OBJECT_TYPE":"PAYLOAD","REV_AT_EPOCH":"3140","REF_FRAME":"TEME","GP_ID":"225159480","DECAY_DATE":null,"SITE":"AFWTR","PERIAPSIS":"563.745","ARG_OF_PERICENTER":"97.1675","RA_OF_ASC_NODE":"105.9905","OBJECT_ID":"2022-084P","COUNTRY_CODE":"US","TLE_LINE2":"2 53202  97.6556 105.9905 0002539  97.1675 262.9838 15.00450667 31405","APOAPSIS":"567.271","MEAN_MOTION_DOT":"0.00000476","LAUNCH_DATE":"2022-07-22","MEAN_MOTION_DDOT":"0.0000000000000","TIME_SYSTEM":"UTC","EPOCH":"2023-02-11T21:44:16.553760","MEAN_MOTION":"15.00450667","MEAN_ELEMENT_THEORY":"SGP4","PERIOD":"95.971","OBJECT_NAME":"STARLINK-4411"},{"FILE":"3786397","OBJECT_TYPE":"PAYLOAD","BSTAR":"0.00062981000000","INCLINATION":"97.6575","REF_FRAME":"TEME","REV_AT_EPOCH":"3127","CENTER_NAME":"EARTH","ELEMENT_SET_NO":"999","MEAN_ANOMALY":"148.6775","EPHEMERIS_TYPE":"0","RCS_SIZE":"LARGE","SEMIMAJOR_AXIS":"6941.087","ECCENTRICITY":"0.00002070","NORAD_CAT_ID":"53203","TLE_LINE1":"1 53203U 22084Q   23042.13293934  .00008044  00000-0  62981-3 0  9999","CLASSIFICATION_TYPE":"U","EPOCH":"2023-02-11T03:11:25.958976","OBJECT_NAME":"STARLINK-4409","PERIOD":"95.918","MEAN_MOTION":"15.01279470","MEAN_ELEMENT_THEORY":"SGP4","PERIAPSIS":"562.808","GP_ID":"225157387","DECAY_DATE":null,"SITE":"AFWTR","LAUNCH_DATE":"2022-07-22","MEAN_MOTION_DOT":"0.00008044","TIME_SYSTEM":"UTC","MEAN_MOTION_DDOT":"0.0000000000000","ARG_OF_PERICENTER":"211.4437","RA_OF_ASC_NODE":"104.9912","TLE_LINE2":"2 53203  97.6575 104.9912 0000207 211.4437 148.6775 15.01279470 31278","APOAPSIS":"563.096","OBJECT_ID":"2022-084Q","COUNTRY_CODE":"US"},{"ELEMENT_SET_NO":"999","CENTER_NAME":"EARTH","RCS_SIZE":"LARGE","EPHEMERIS_TYPE":"0","MEAN_ANOMALY":"103.6547","ECCENTRICITY":"0.00012080","SEMIMAJOR_AXIS":"6941.141","TLE_LINE1":"1 53204U 22084R   23042.60505989  .00001066  00000-0  87571-4 0  9998","CLASSIFICATION_TYPE":"U","NORAD_CAT_ID":"53204","OBJECT_TYPE":"PAYLOAD","FILE":"3786577","INCLINATION":"97.6580","BSTAR":"0.00008757100000","REV_AT_EPOCH":"3162","REF_FRAME":"TEME","PERIAPSIS":"562.168","SITE":"AFWTR","GP_ID":"225187579","DECAY_DATE":null,"MEAN_MOTION_DDOT":"0.0000000000000","TIME_SYSTEM":"UTC","MEAN_MOTION_DOT":"0.00001066","LAUNCH_DATE":"2022-07-22","OBJECT_ID":"2022-084R","COUNTRY_CODE":"US","APOAPSIS":"563.844","TLE_LINE2":"2 53204  97.6580 105.4565 0001208 256.4543 103.6547 15.01261898 31626","RA_OF_ASC_NODE":"105.4565","ARG_OF_PERICENTER":"256.4543","EPOCH":"2023-02-11T14:31:17.174496","PERIOD":"95.919","OBJECT_NAME":"STARLINK-4410","MEAN_ELEMENT_THEORY":"SGP4","MEAN_MOTION":"15.01261898"},{"OBJECT_TYPE":"PAYLOAD","FILE":"3786577","INCLINATION":"97.6596","BSTAR":"0.00013623000000","REV_AT_EPOCH":"3100","REF_FRAME":"TEME","ELEMENT_SET_NO":"999","CENTER_NAME":"EARTH","RCS_SIZE":"LARGE","EPHEMERIS_TYPE":"0","MEAN_ANOMALY":"229.8538","ECCENTRICITY":"0.00008840","SEMIMAJOR_AXIS":"6941.143","CLASSIFICATION_TYPE":"U","TLE_LINE1":"1 53205U 22084S   23042.86241826  .00001691  00000-0  13623-3 0  9994","NORAD_CAT_ID":"53205","EPOCH":"2023-02-11T20:41:52.937664","PERIOD":"95.919","OBJECT_NAME":"STARLINK-4397","MEAN_ELEMENT_THEORY":"SGP4","MEAN_MOTION":"15.01261243","PERIAPSIS":"562.394","SITE":"AFWTR","DECAY_DATE":null,"GP_ID":"225187329","MEAN_MOTION_DDOT":"0.0000000000000","TIME_SYSTEM":"UTC","LAUNCH_DATE":"2022-07-22","MEAN_MOTION_DOT":"0.00001691","COUNTRY_CODE":"US","OBJECT_ID":"2022-084S","TLE_LINE2":"2 53205  97.6596 105.7140 0000884 130.2763 229.8538 15.01261243 31005","APOAPSIS":"563.622","RA_OF_ASC_NODE":"105.7140","ARG_OF_PERICENTER":"130.2763"},{"RCS_SIZE":"LARGE","EPHEMERIS_TYPE":"0","MEAN_ANOMALY":"150.2778","ELEMENT_SET_NO":"999","CENTER_NAME":"EARTH","CLASSIFICATION_TYPE":"U","TLE_LINE1":"1 53206U 22084T   23042.13318035  .00001025  00000-0  84365-4 0  9995","NORAD_CAT_ID":"53206","ECCENTRICITY":"0.00004370","SEMIMAJOR_AXIS":"6941.117","INCLINATION":"97.6587","BSTAR":"0.00008436500000","OBJECT_TYPE":"PAYLOAD","FILE":"3786144","REV_AT_EPOCH":"3089","REF_FRAME":"TEME","SITE":"AFWTR","GP_ID":"225123471","DECAY_DATE":null,"PERIAPSIS":"562.679","OBJECT_ID":"2022-084T","COUNTRY_CODE":"US","TLE_LINE2":"2 53206  97.6587 104.9909 0000437 209.8421 150.2778 15.01269533 30897","APOAPSIS":"563.286","RA_OF_ASC_NODE":"104.9909","ARG_OF_PERICENTER":"209.8421","TIME_SYSTEM":"UTC","MEAN_MOTION_DDOT":"0.0000000000000","MEAN_MOTION_DOT":"0.00001025","LAUNCH_DATE":"2022-07-22","EPOCH":"2023-02-11T03:11:46.782240","MEAN_ELEMENT_THEORY":"SGP4","MEAN_MOTION":"15.01269533","PERIOD":"95.919","OBJECT_NAME":"STARLINK-4408"},{"MEAN_ELEMENT_THEORY":"SGP4","MEAN_MOTION":"15.01267103","PERIOD":"95.919","OBJECT_NAME":"STARLINK-4413","EPOCH":"2023-02-11T03:03:26.060544","OBJECT_ID":"2022-084U","COUNTRY_CODE":"US","TLE_LINE2":"2 53207  97.6605 104.9910 0000664  92.8050 267.3250 15.01267103 30897","APOAPSIS":"563.451","ARG_OF_PERICENTER":"92.8050","RA_OF_ASC_NODE":"104.9910","MEAN_MOTION_DDOT":"0.0000000000000","TIME_SYSTEM":"UTC","MEAN_MOTION_DOT":"0.00003582","LAUNCH_DATE":"2022-07-22","SITE":"AFWTR","GP_ID":"225123222","DECAY_DATE":null,"PERIAPSIS":"562.529","REV_AT_EPOCH":"3089","REF_FRAME":"TEME","INCLINATION":"97.6605","BSTAR":"0.00028328000000","OBJECT_TYPE":"PAYLOAD","FILE":"3786144","TLE_LINE1":"1 53207U 22084U   23042.12738496  .00003582  00000-0  28328-3 0  9998","NORAD_CAT_ID":"53207","CLASSIFICATION_TYPE":"U","ECCENTRICITY":"0.00006640","SEMIMAJOR_AXIS":"6941.125","RCS_SIZE":"LARGE","EPHEMERIS_TYPE":"0","MEAN_ANOMALY":"267.3250","ELEMENT_SET_NO":"999","CENTER_NAME":"EARTH"},{"MEAN_ANOMALY":"106.4299","RCS_SIZE":"LARGE","EPHEMERIS_TYPE":"0","ELEMENT_SET_NO":"999","CENTER_NAME":"EARTH","TLE_LINE1":"1 53208U 22084V   23042.73466611  .00001449  00000-0  11739-3 0  9991","NORAD_CAT_ID":"53208","CLASSIFICATION_TYPE":"U","SEMIMAJOR_AXIS":"6941.128","ECCENTRICITY":"0.00010970","BSTAR":"0.00011739000000","INCLINATION":"97.6579","FILE":"3786577","OBJECT_TYPE":"PAYLOAD","REV_AT_EPOCH":"3098","REF_FRAME":"TEME","GP_ID":"225187079","DECAY_DATE":null,"SITE":"AFWTR","PERIAPSIS":"562.231","ARG_OF_PERICENTER":"253.6805","RA_OF_ASC_NODE":"105.5832","COUNTRY_CODE":"US","OBJECT_ID":"2022-084V","APOAPSIS":"563.754","TLE_LINE2":"2 53208  97.6579 105.5832 0001097 253.6805 106.4299 15.01266268 30981","MEAN_MOTION_DOT":"0.00001449","LAUNCH_DATE":"2022-07-22","MEAN_MOTION_DDOT":"0.0000000000000","TIME_SYSTEM":"UTC","EPOCH":"2023-02-11T17:37:55.151904","MEAN_MOTION":"15.01266268","MEAN_ELEMENT_THEORY":"SGP4","PERIOD":"95.919","OBJECT_NAME":"STARLINK-4425"},{"EPOCH":"2023-02-11T22:12:52.851744","OBJECT_NAME":"STARLINK-4423","PERIOD":"95.919","MEAN_ELEMENT_THEORY":"SGP4","MEAN_MOTION":"15.01264396","PERIAPSIS":"562.164","SITE":"AFWTR","DECAY_DATE":null,"GP_ID":"225161332","TIME_SYSTEM":"UTC","MEAN_MOTION_DDOT":"0.0000000000000","LAUNCH_DATE":"2022-07-22","MEAN_MOTION_DOT":"0.00002100","TLE_LINE2":"2 53209  97.6609 105.7795 0001202  92.3771 267.7591 15.01264396 31396","APOAPSIS":"563.833","OBJECT_ID":"2022-084W","COUNTRY_CODE":"US","ARG_OF_PERICENTER":"92.3771","RA_OF_ASC_NODE":"105.7795","OBJECT_TYPE":"PAYLOAD","FILE":"3786554","INCLINATION":"97.6609","BSTAR":"0.00016803000000","REF_FRAME":"TEME","REV_AT_EPOCH":"3139","CENTER_NAME":"EARTH","ELEMENT_SET_NO":"999","EPHEMERIS_TYPE":"0","RCS_SIZE":"LARGE","MEAN_ANOMALY":"267.7591","ECCENTRICITY":"0.00012020","SEMIMAJOR_AXIS":"6941.133","TLE_LINE1":"1 53209U 22084W   23042.92561171  .00002100  00000-0  16803-3 0  9992","CLASSIFICATION_TYPE":"U","NORAD_CAT_ID":"53209"}];
